[
    {
        "CCSDS_OMM_VERS": "3.0",
        "COMMENT": "GENERATED VIA SPACE-TRACK.ORG API",
        "CREATION_DATE": "2025-04-14T03:05:54",
        "ORIGINATOR": "18 SPCS",
        "OBJECT_NAME": "GALILEO-FM2",
        "OBJECT_ID": "2011-060B",
        "CENTER_NAME": "EARTH",
        "REF_FRAME": "TEME",
        "TIME_SYSTEM": "UTC",
        "MEAN_ELEMENT_THEORY": "SGP4",
        "EPOCH": "2025-04-13T02:17:32.578080",
        "MEAN_MOTION": "1.70476197",
        "ECCENTRICITY": "0.00048180",
        "INCLINATION": "57.1043",
        "RA_OF_ASC_NODE": "353.4191",
        "ARG_OF_PERICENTER": "347.8948",
        "MEAN_ANOMALY": "188.7591",
        "EPHEMERIS_TYPE": "0",
        "CLASSIFICATION_TYPE": "U",
        "NORAD_CAT_ID": "37847",
        "ELEMENT_SET_NO": "999",
        "REV_AT_EPOCH": "8379",
        "BSTAR": "0.00000000000000",
        "MEAN_MOTION_DOT": "-0.00000093",
        "MEAN_MOTION_DDOT": "0.0000000000000",
        "SEMIMAJOR_AXIS": "29600.066",
        "PERIOD": "844.693",
        "APOAPSIS": "23236.192",
        "PERIAPSIS": "23207.669",
        "OBJECT_TYPE": "PAYLOAD",
        "RCS_SIZE": "LARGE",
        "COUNTRY_CODE": "ESA",
        "LAUNCH_DATE": "2011-10-21",
        "SITE": "FRGUI",
        "DECAY_DATE": null,
        "FILE": "4701263",
        "GP_ID": "285535714",
        "TLE_LINE0": "0 GALILEO-FM2",
        "TLE_LINE1": "1 37847U 11060B   25103.09551595 -.00000093  00000-0  00000-0 0  9990",
        "TLE_LINE2": "2 37847  57.1043 353.4191 0004818 347.8948 188.7591  1.70476197 83799"
    }
]